STARLINK-1434           
1 45712U 20035BH  26068.24137979  .00054112  00000+0  20295-2 0  9995
2 45712  53.0547  22.1128 0005343  88.0400 272.1210 15.26724568319325
STARLINK-31257          
1 59079U 24041F   26068.03876622  .00000506  00000+0  27929-4 0  9990
2 59079  43.0036 314.2360 0001446 256.3758 103.6933 15.27580429114170
