[{"OBJECT_NAME":"STARLINK-1434","OBJECT_ID":"2020-035BH","EPOCH":"2026-03-09T05:47:35.213856","MEAN_MOTION":15.26724568,"ECCENTRICITY":0.00053438,"INCLINATION":53.0547,"RA_OF_ASC_NODE":22.1128,"ARG_OF_PERICENTER":88.04,"MEAN_ANOMALY":272.121,"EPHEMERIS_TYPE":0,"CLASSIFICATION_TYPE":"U","NORAD_CAT_ID":45712,"ELEMENT_SET_NO":999,"REV_AT_EPOCH":31932,"BSTAR":0.0020295208,"MEAN_MOTION_DOT":0.00054112,"MEAN_MOTION_DDOT":0},{"OBJECT_NAME":"STARLINK-31257","OBJECT_ID":"2024-041F","EPOCH":"2026-03-09T00:55:49.401408","MEAN_MOTION":15.27580429,"ECCENTRICITY":0.00014469,"INCLINATION":43.0036,"RA_OF_ASC_NODE":314.236,"ARG_OF_PERICENTER":256.3758,"MEAN_ANOMALY":103.6933,"EPHEMERIS_TYPE":0,"CLASSIFICATION_TYPE":"U","NORAD_CAT_ID":59079,"ELEMENT_SET_NO":999,"REV_AT_EPOCH":11417,"BSTAR":2.7929195e-5,"MEAN_MOTION_DOT":5.06e-6,"MEAN_MOTION_DDOT":0}]
